{
"type": "FeatureCollection",
"name": "merged_dataset",
"crs": { "type": "name", "properties": { "name": "urn:ogc:def:crs:OGC:1.3:CRS84" } },
"features": [
{ "type": "Feature", "properties": { "unit_id": "A", "asset": "a0" }, "geometry": { "type": "Point", "coordinates": [ 0.0, 0.0 ] } },
{ "type": "Feature", "properties": { "unit_id": "A", "asset": "a1" }, "geometry": { "type": "Point", "coordinates": [ 1.0, 1.0 ] } },
{ "type": "Feature", "properties": { "unit_id": "A", "asset": "a2" }, "geometry": { "type": "Point", "coordinates": [ 2.0, 2.0 ] } },
{ "type": "Feature", "properties": { "unit_id": "A", "asset": "a3" }, "geometry": { "type": "Point", "coordinates": [ 3.0, 3.0 ] } },
{ "type": "Feature", "properties": { "unit_id": "B", "asset": "b0" }, "geometry": { "type": "Point", "coordinates": [ 4.0, 4.0 ] } },
{ "type": "Feature", "properties": { "unit_id": "B", "asset": "b1" }, "geometry": { "type": "Point", "coordinates": [ 5.0, 5.0 ] } },
{ "type": "Feature", "properties": { "unit_id": "C", "asset": "c0" }, "geometry": { "type": "Point", "coordinates": [ 6.0, 6.0 ] } },
{ "type": "Feature", "properties": { "unit_id": "C", "asset": "c1" }, "geometry": { "type": "Point", "coordinates": [ 7.0, 7.0 ] } },
{ "type": "Feature", "properties": { "unit_id": "C", "asset": "c2" }, "geometry": { "type": "Point", "coordinates": [ 8.0, 8.0 ] } },
{ "type": "Feature", "properties": { "unit_id": null, "asset": "orphan" }, "geometry": { "type": "Point", "coordinates": [ 9.0, 9.0 ] } }
]
}
