{
"type": "FeatureCollection",
"name": "synthetic_tile_vegetation",
"crs": { "type": "name", "properties": { "name": "urn:ogc:def:crs:OGC:1.3:CRS84" } },
"features": [
{ "type": "Feature", "properties": { "class": "vegetation" }, "geometry": { "type": "Polygon", "coordinates": [ [ [ 30.0, 87.0 ], [ 30.0, 86.0 ], [ 26.0, 86.0 ], [ 26.0, 85.0 ], [ 24.0, 85.0 ], [ 24.0, 84.0 ], [ 23.0, 84.0 ], [ 23.0, 83.0 ], [ 22.0, 83.0 ], [ 22.0, 82.0 ], [ 21.0, 82.0 ], [ 21.0, 81.0 ], [ 20.0, 81.0 ], [ 20.0, 79.0 ], [ 19.0, 79.0 ], [ 19.0, 75.0 ], [ 18.0, 75.0 ], [ 18.0, 74.0 ], [ 19.0, 74.0 ], [ 19.0, 70.0 ], [ 20.0, 70.0 ], [ 20.0, 68.0 ], [ 21.0, 68.0 ], [ 21.0, 67.0 ], [ 22.0, 67.0 ], [ 22.0, 66.0 ], [ 23.0, 66.0 ], [ 23.0, 65.0 ], [ 24.0, 65.0 ], [ 24.0, 64.0 ], [ 26.0, 64.0 ], [ 26.0, 63.0 ], [ 30.0, 63.0 ], [ 30.0, 62.0 ], [ 31.0, 62.0 ], [ 31.0, 63.0 ], [ 35.0, 63.0 ], [ 35.0, 64.0 ], [ 37.0, 64.0 ], [ 37.0, 65.0 ], [ 38.0, 65.0 ], [ 38.0, 66.0 ], [ 39.0, 66.0 ], [ 39.0, 67.0 ], [ 40.0, 67.0 ], [ 40.0, 68.0 ], [ 41.0, 68.0 ], [ 41.0, 70.0 ], [ 42.0, 70.0 ], [ 42.0, 74.0 ], [ 43.0, 74.0 ], [ 43.0, 75.0 ], [ 42.0, 75.0 ], [ 42.0, 79.0 ], [ 41.0, 79.0 ], [ 41.0, 81.0 ], [ 40.0, 81.0 ], [ 40.0, 82.0 ], [ 39.0, 82.0 ], [ 39.0, 83.0 ], [ 38.0, 83.0 ], [ 38.0, 84.0 ], [ 37.0, 84.0 ], [ 37.0, 85.0 ], [ 35.0, 85.0 ], [ 35.0, 86.0 ], [ 31.0, 86.0 ], [ 31.0, 87.0 ], [ 30.0, 87.0 ] ] ] } },
{ "type": "Feature", "properties": { "class": "vegetation" }, "geometry": { "type": "Polygon", "coordinates": [ [ [ 80.0, 64.0 ], [ 80.0, 63.0 ], [ 76.0, 63.0 ], [ 76.0, 62.0 ], [ 75.0, 62.0 ], [ 75.0, 61.0 ], [ 74.0, 61.0 ], [ 74.0, 60.0 ], [ 73.0, 60.0 ], [ 73.0, 59.0 ], [ 72.0, 59.0 ], [ 72.0, 55.0 ], [ 71.0, 55.0 ], [ 71.0, 54.0 ], [ 72.0, 54.0 ], [ 72.0, 50.0 ], [ 73.0, 50.0 ], [ 73.0, 49.0 ], [ 74.0, 49.0 ], [ 74.0, 48.0 ], [ 75.0, 48.0 ], [ 75.0, 47.0 ], [ 76.0, 47.0 ], [ 76.0, 46.0 ], [ 80.0, 46.0 ], [ 80.0, 45.0 ], [ 81.0, 45.0 ], [ 81.0, 46.0 ], [ 85.0, 46.0 ], [ 85.0, 47.0 ], [ 86.0, 47.0 ], [ 86.0, 48.0 ], [ 87.0, 48.0 ], [ 87.0, 49.0 ], [ 88.0, 49.0 ], [ 88.0, 50.0 ], [ 89.0, 50.0 ], [ 89.0, 54.0 ], [ 90.0, 54.0 ], [ 90.0, 55.0 ], [ 89.0, 55.0 ], [ 89.0, 59.0 ], [ 88.0, 59.0 ], [ 88.0, 60.0 ], [ 87.0, 60.0 ], [ 87.0, 61.0 ], [ 86.0, 61.0 ], [ 86.0, 62.0 ], [ 85.0, 62.0 ], [ 85.0, 63.0 ], [ 81.0, 63.0 ], [ 81.0, 64.0 ], [ 80.0, 64.0 ] ] ] } },
{ "type": "Feature", "properties": { "class": "vegetation" }, "geometry": { "type": "Polygon", "coordinates": [ [ [ 65.0, 46.0 ], [ 65.0, 45.0 ], [ 60.0, 45.0 ], [ 60.0, 44.0 ], [ 58.0, 44.0 ], [ 58.0, 43.0 ], [ 56.0, 43.0 ], [ 56.0, 42.0 ], [ 55.0, 42.0 ], [ 55.0, 41.0 ], [ 54.0, 41.0 ], [ 54.0, 40.0 ], [ 53.0, 40.0 ], [ 53.0, 39.0 ], [ 52.0, 39.0 ], [ 52.0, 37.0 ], [ 51.0, 37.0 ], [ 51.0, 35.0 ], [ 50.0, 35.0 ], [ 50.0, 30.0 ], [ 49.0, 30.0 ], [ 49.0, 29.0 ], [ 50.0, 29.0 ], [ 50.0, 24.0 ], [ 51.0, 24.0 ], [ 51.0, 22.0 ], [ 52.0, 22.0 ], [ 52.0, 20.0 ], [ 53.0, 20.0 ], [ 53.0, 19.0 ], [ 54.0, 19.0 ], [ 54.0, 18.0 ], [ 55.0, 18.0 ], [ 55.0, 17.0 ], [ 56.0, 17.0 ], [ 56.0, 16.0 ], [ 58.0, 16.0 ], [ 58.0, 15.0 ], [ 60.0, 15.0 ], [ 60.0, 14.0 ], [ 65.0, 14.0 ], [ 65.0, 13.0 ], [ 66.0, 13.0 ], [ 66.0, 14.0 ], [ 71.0, 14.0 ], [ 71.0, 15.0 ], [ 73.0, 15.0 ], [ 73.0, 16.0 ], [ 75.0, 16.0 ], [ 75.0, 17.0 ], [ 76.0, 17.0 ], [ 76.0, 18.0 ], [ 77.0, 18.0 ], [ 77.0, 19.0 ], [ 78.0, 19.0 ], [ 78.0, 20.0 ], [ 79.0, 20.0 ], [ 79.0, 22.0 ], [ 80.0, 22.0 ], [ 80.0, 24.0 ], [ 81.0, 24.0 ], [ 81.0, 29.0 ], [ 82.0, 29.0 ], [ 82.0, 30.0 ], [ 81.0, 30.0 ], [ 81.0, 35.0 ], [ 80.0, 35.0 ], [ 80.0, 37.0 ], [ 79.0, 37.0 ], [ 79.0, 39.0 ], [ 78.0, 39.0 ], [ 78.0, 40.0 ], [ 77.0, 40.0 ], [ 77.0, 41.0 ], [ 76.0, 41.0 ], [ 76.0, 42.0 ], [ 75.0, 42.0 ], [ 75.0, 43.0 ], [ 73.0, 43.0 ], [ 73.0, 44.0 ], [ 71.0, 44.0 ], [ 71.0, 45.0 ], [ 66.0, 45.0 ], [ 66.0, 46.0 ], [ 65.0, 46.0 ] ] ] } }
]
}
