{
"type": "FeatureCollection",
"name": "A",
"crs": { "type": "name", "properties": { "name": "urn:ogc:def:crs:OGC:1.3:CRS84" } },
"features": [
{ "type": "Feature", "properties": { "unit_id": "A", "asset": "a0" }, "geometry": { "type": "Point", "coordinates": [ 0.0, 0.0 ] } },
{ "type": "Feature", "properties": { "unit_id": "A", "asset": "a1" }, "geometry": { "type": "Point", "coordinates": [ 1.0, 1.0 ] } },
{ "type": "Feature", "properties": { "unit_id": "A", "asset": "a2" }, "geometry": { "type": "Point", "coordinates": [ 2.0, 2.0 ] } },
{ "type": "Feature", "properties": { "unit_id": "A", "asset": "a3" }, "geometry": { "type": "Point", "coordinates": [ 3.0, 3.0 ] } }
]
}
