{
"type": "FeatureCollection",
"name": "C",
"crs": { "type": "name", "properties": { "name": "urn:ogc:def:crs:OGC:1.3:CRS84" } },
"features": [
{ "type": "Feature", "properties": { "unit_id": "C", "asset": "c0" }, "geometry": { "type": "Point", "coordinates": [ 6.0, 6.0 ] } },
{ "type": "Feature", "properties": { "unit_id": "C", "asset": "c1" }, "geometry": { "type": "Point", "coordinates": [ 7.0, 7.0 ] } },
{ "type": "Feature", "properties": { "unit_id": "C", "asset": "c2" }, "geometry": { "type": "Point", "coordinates": [ 8.0, 8.0 ] } }
]
}
